GPS BIIA-23 (PRN 18)    
1 22877U 93068A   18333.54810834 -.00000036  00000-0  00000+0 0  9992
2 22877  54.5427  76.7237 0147534  78.0278 203.1562  2.00570108183861
GPS BIIR-2  (PRN 13)    
1 24876U 97035A   18333.55464088  .00000027  00000-0  00000+0 0  9997
2 24876  55.4706 206.2842 0034268  79.9277 280.5392  2.00564195156478
GPS BIIR-3  (PRN 11)    
1 25933U 99055A   18333.59088777 -.00000074  00000-0  00000+0 0  9990
2 25933  51.9997  54.4939 0165471 105.8998 207.8876  2.00563194140285
GPS BIIR-4  (PRN 20)    
1 26360U 00025A   18332.46950019  .00000066  00000-0  00000+0 0  9996
2 26360  53.2569 132.8122 0042903 126.8169 143.4014  2.00563049135958
GPS BIIR-5  (PRN 28)    
1 26407U 00040A   18332.24653719 -.00000034  00000-0  00000+0 0  9994
2 26407  56.3888 324.4722 0198418 274.2973 171.3733  2.00561446134627
GPS BIIR-6  (PRN 14)    
1 26605U 00071A   18333.50531214  .00000031  00000-0  00000+0 0  9999
2 26605  55.0443 203.8132 0102017 248.9611 295.0113  2.00566091132256
GPS BIIR-8  (PRN 16)    
1 27663U 03005A   18333.17915071 -.00000035  00000-0  00000+0 0  9999
2 27663  56.4507 324.2013 0100928  28.5362 129.9004  2.00556715116008
GPS BIIR-9  (PRN 21)    
1 27704U 03010A   18333.04745655 -.00000033  00000-0  00000+0 0  9994
2 27704  54.2151  76.2780 0247635 273.5215 114.0174  2.00574090114801
GPS BIIR-10 (PRN 22)    
1 28129U 03058A   18333.25181680  .00000072  00000-0  00000+0 0  9995
2 28129  53.0697 135.6029 0072177 276.2926  82.8884  2.00566022109504
GPS BIIR-11 (PRN 19)    
1 28190U 04009A   18333.45575789 -.00000081  00000-0  00000+0 0  9990
2 28190  56.2245  24.9960 0091989  75.1904  72.2719  2.00571334107683
GPS BIIR-12 (PRN 23)    
1 28361U 04023A   18333.29155049  .00000038  00000-0  00000+0 0  9992
2 28361  54.0510 198.3943 0127845 227.9064  74.4783  2.00561414105766
GPS BIIR-13 (PRN 02)    
1 28474U 04045A   18333.51649743 -.00000037  00000-0  00000+0 0  9995
2 28474  54.5790  75.9359 0187377 256.4976 211.4374  2.00571620103130
GPS BIIRM-1 (PRN 17)    
1 28874U 05038A   18333.37540446 -.00000080  00000-0  00000+0 0  9994
2 28874  56.3577  22.3288 0131424 259.6842 215.4479  2.00566649 96533
GPS BIIRM-2 (PRN 31)    
1 29486U 06042A   18333.45360118 -.00000030  00000-0  00000+0 0  9990
2 29486  55.0937 261.0463 0091064 354.6714  94.3160  2.00549852 89254
GPS BIIRM-3 (PRN 12)    
1 29601U 06052A   18332.77211920 -.00000034  00000-0  00000+0 0  9994
2 29601  56.4287 323.1338 0069102  57.3975 303.2781  2.00556376 88159
GPS BIIRM-4 (PRN 15)    
1 32260U 07047A   18333.09030484  .00000042  00000-0  00000+0 0  9992
2 32260  53.1750 194.2746 0109176  41.4187 319.4838  2.00571398 81536
GPS BIIRM-5 (PRN 29)    
1 32384U 07062A   18333.34383635 -.00000080  00000-0  00000+0 0  9996
2 32384  56.4364  22.9527 0004032  96.2134 224.0816  2.00572979 80272
GPS BIIRM-6 (PRN 07)    
1 32711U 08012A   18332.99735736 -.00000024  00000-0  00000+0 0  9997
2 32711  54.8302 260.3025 0122515 218.7193 140.4232  2.00568468 78463
GPS BIIRM-8 (PRN 05)    
1 35752U 09043A   18333.44218858  .00000078  00000-0  00000+0 0  9990
2 35752  54.3646 138.0054 0054426  39.5851 306.9637  2.00573669 68045
GPS BIIF-1  (PRN 25)    
1 36585U 10022A   18333.56674370 -.00000037  00000-0  00000+0 0  9998
2 36585  55.7133 319.5455 0074950  47.4235 139.2239  2.00577256 62297
GPS BIIF-2  (PRN 01)    
1 37753U 11036A   18333.55363667 -.00000029  00000-0  00000+0 0  9996
2 37753  55.7767  79.6585 0080346  38.7312 220.4044  2.00564900 53986
GPS BIIF-3  (PRN 24)    
1 38833U 12053A   18333.17653525 -.00000026  00000-0  00000+0 0  9996
2 38833  53.8622 256.6913 0076150  30.2912 330.1756  2.00569865 45039
GPS BIIF-4  (PRN 27)    
1 39166U 13023A   18333.54019125 -.00000080  00000-0  00000+0 0  9997
2 39166  56.0484  19.1644 0061214  22.6517 337.6714  2.00560737 40584
GPS BIIF-5  (PRN 30)    
1 39533U 14008A   18333.03981526 -.00000026  00000-0  00000+0 0  9996
2 39533  54.0011 262.0686 0036160 192.4101 167.5242  2.00564948 34945
GPS BIIF-6  (PRN 06)    
1 39741U 14026A   18333.31972204 -.00000028  00000-0  00000+0 0  9993
2 39741  55.7584  79.1922 0013640 286.9550  72.8946  2.00555092 33223
GPS BIIF-7  (PRN 09)    
1 40105U 14045A   18332.90795357  .00000038  00000-0  00000+0 0  9996
2 40105  54.5775 198.6037 0011792  97.2610 262.9545  2.00550711 31664
GPS BIIF-8  (PRN 03)    
1 40294U 14068A   18333.28222796  .00000080  00000-0  00000+0 0  9991
2 40294  55.1161 139.4083 0017258  34.7640 325.3564  2.00568353 29893
GPS BIIF-9  (PRN 26)    
1 40534U 15013A   18332.42325139 -.00000035  00000-0  00000+0 0  9990
2 40534  54.6490 318.1427 0032719 358.7990   1.1976  2.00553676 26944
GPS BIIF-10  (PRN 08)   
1 40730U 15033A   18333.07746535 -.00000079  00000-0  00000+0 0  9997
2 40730  55.5762  18.6136 0039627 333.1866  26.6630  2.00565348 24718
GPS BIIF-11  (PRN 10)   
1 41019U 15062A   18333.13032382  .00000080  00000-0  00000+0 0  9996
2 41019  55.1194 139.2231 0041235 201.6680 158.1649  2.00564475 22530
GPS BIIF-12  (PRN 32)   
1 41328U 16007A   18332.72277391  .00000038  00000-0  00000+0 0  9997
2 41328  54.8249 198.9467 0024622 214.6290 145.2924  2.00556768 20587
